{"type": "FeatureCollection", "features": [ {"type": "Feature", "properties": {"norad_id": 30048, "name": "FENGYUN 1C DEB", "group": "fengyun-1c-debris", "lat": 81.01921160408973, "lon": 134.31060013741762, "alt_km": 1090.2273774856058, "timestamp": "2025-12-08T23:34:04.242797+00:00", "meta": {"OBJECT_NAME": "FENGYUN 1C DEB", "OBJECT_ID": "1999-025NZ", "EPOCH": "2025-12-08T14:33:54.088992", "MEAN_MOTION": 13.79889865, "ECCENTRICITY": 0.01862603, "INCLINATION": 98.6668, "RA_OF_ASC_NODE": 208.7808, "ARG_OF_PERICENTER": 256.1405, "MEAN_ANOMALY": 129.5668, "EPHEMERIS_TYPE": 0, "CLASSIFICATION_TYPE": "U", "NORAD_CAT_ID": 30048, "ELEMENT_SET_NO": 999, "REV_AT_EPOCH": 95069, "BSTAR": 0.00049363473, "MEAN_MOTION_DOT": 5.42e-06, "MEAN_MOTION_DDOT": 0}, "tle": {"line1": "1 30048U 99025NZ  25342.60687603  .00000542  00000+0  49363-3 0  9990", "line2": "2 30048  98.6668 208.7808 0186260 256.1405 129.5668 13.79889865950699"}}, "geometry": {"type": "Point", "coordinates": [134.31060013741762, 81.01921160408973]}}, {"type": "Feature", "properties": {"norad_id": 30050, "name": "FENGYUN 1C DEB", "group": "fengyun-1c-debris", "lat": 2.8028788816408157, "lon": -56.14515018699306, "alt_km": 848.5354925401925, "timestamp": "2025-12-08T23:34:04.242808+00:00", "meta": {"OBJECT_NAME": "FENGYUN 1C DEB", "OBJECT_ID": "1999-025PB", "EPOCH": "2025-12-08T04:33:41.690304", "MEAN_MOTION": 13.85026279, "ECCENTRICITY": 0.01716681, "INCLINATION": 96.8178, "RA_OF_ASC_NODE": 303.6137, "ARG_OF_PERICENTER": 43.0403, "MEAN_ANOMALY": 334.7227, "EPHEMERIS_TYPE": 0, "CLASSIFICATION_TYPE": "U", "NORAD_CAT_ID": 30050, "ELEMENT_SET_NO": 999, "REV_AT_EPOCH": 95139, "BSTAR": 0.0017967652, "MEAN_MOTION_DOT": 2.255e-05, "MEAN_MOTION_DDOT": 0}, "tle": {"line1": "1 30050U 99025PB  25342.19006586  .00002255  00000+0  17968-2 0  9990", "line2": "2 30050  96.8178 303.6137 0171668  43.0403 334.7227 13.85026279951393"}}, "geometry": {"type": "Point", "coordinates": [-56.14515018699306, 2.8028788816408157]}}, {"type": "Feature", "properties": {"norad_id": 30052, "name": "FENGYUN 1C DEB", "group": "fengyun-1c-debris", "lat": 77.87037735871867, "lon": -40.992880690775635, "alt_km": 1180.8488346690228, "timestamp": "2025-12-08T23:34:04.242818+00:00", "meta": {"OBJECT_NAME": "FENGYUN 1C DEB", "OBJECT_ID": "1999-025PD", "EPOCH": "2025-12-08T15:00:06.763392", "MEAN_MOTION": 13.72953606, "ECCENTRICITY": 0.02888999, "INCLINATION": 99.2996, "RA_OF_ASC_NODE": 8.3331, "ARG_OF_PERICENTER": 243.0654, "MEAN_ANOMALY": 237.1256, "EPHEMERIS_TYPE": 0, "CLASSIFICATION_TYPE": "U", "NORAD_CAT_ID": 30052, "ELEMENT_SET_NO": 999, "REV_AT_EPOCH": 94498, "BSTAR": 0.00081971783, "MEAN_MOTION_DOT": 9.75e-06, "MEAN_MOTION_DDOT": 0}, "tle": {"line1": "1 30052U 99025PD  25342.62507828  .00000975  00000+0  81972-3 0  9999", "line2": "2 30052  99.2996   8.3331 0288899 243.0654 237.1256 13.72953606944984"}}, "geometry": {"type": "Point", "coordinates": [-40.992880690775635, 77.87037735871867]}}, {"type": "Feature", "properties": {"norad_id": 30053, "name": "FENGYUN 1C DEB", "group": "fengyun-1c-debris", "lat": -4.903442055368139, "lon": 157.09066813368196, "alt_km": 677.246558677678, "timestamp": "2025-12-08T23:34:04.242829+00:00", "meta": {"OBJECT_NAME": "FENGYUN 1C DEB", "OBJECT_ID": "1999-025PE", "EPOCH": "2025-12-08T11:49:46.710336", "MEAN_MOTION": 13.94103348, "ECCENTRICITY": 0.03316573, "INCLINATION": 98.5757, "RA_OF_ASC_NODE": 155.8939, "ARG_OF_PERICENTER": 350.2177, "MEAN_ANOMALY": 71.2493, "EPHEMERIS_TYPE": 0, "CLASSIFICATION_TYPE": "U", "NORAD_CAT_ID": 30053, "ELEMENT_SET_NO": 999, "REV_AT_EPOCH": 94927, "BSTAR": 0.0020831311, "MEAN_MOTION_DOT": 4.317e-05, "MEAN_MOTION_DDOT": 0}, "tle": {"line1": "1 30053U 99025PE  25342.49290174  .00004317  00000+0  20831-2 0  9998", "line2": "2 30053  98.5757 155.8939 0331657 350.2177  71.2493 13.94103348949277"}}, "geometry": {"type": "Point", "coordinates": [157.09066813368196, -4.903442055368139]}}, {"type": "Feature", "properties": {"norad_id": 30054, "name": "FENGYUN 1C DEB", "group": "fengyun-1c-debris", "lat": 61.25585327195692, "lon": -2.2115435009281965, "alt_km": 854.013882712743, "timestamp": "2025-12-08T23:34:04.242839+00:00", "meta": {"OBJECT_NAME": "FENGYUN 1C DEB", "OBJECT_ID": "1999-025PF", "EPOCH": "2025-12-08T13:29:51.980352", "MEAN_MOTION": 13.69858152, "ECCENTRICITY": 0.02760564, "INCLINATION": 99.3719, "RA_OF_ASC_NODE": 14.9028, "ARG_OF_PERICENTER": 16.1084, "MEAN_ANOMALY": 136.2402, "EPHEMERIS_TYPE": 0, "CLASSIFICATION_TYPE": "U", "NORAD_CAT_ID": 30054, "ELEMENT_SET_NO": 999, "REV_AT_EPOCH": 94291, "BSTAR": 0.00092104731, "MEAN_MOTION_DOT": 1.012e-05, "MEAN_MOTION_DDOT": 0}, "tle": {"line1": "1 30054U 99025PF  25342.56240718  .00001012  00000+0  92105-3 0  9999", "line2": "2 30054  99.3719  14.9028 0276056  16.1084 136.2402 13.69858152942913"}}, "geometry": {"type": "Point", "coordinates": [-2.2115435009281965, 61.25585327195692]}}, {"type": "Feature", "properties": {"norad_id": 30056, "name": "FENGYUN 1C DEB", "group": "fengyun-1c-debris", "lat": -47.91567678751596, "lon": 178.43260964765742, "alt_km": 987.5660384664179, "timestamp": "2025-12-08T23:34:04.242849+00:00", "meta": {"OBJECT_NAME": "FENGYUN 1C DEB", "OBJECT_ID": "1999-025PH", "EPOCH": "2025-12-08T11:34:29.771328", "MEAN_MOTION": 13.73938715, "ECCENTRICITY": 0.0299887, "INCLINATION": 98.3222, "RA_OF_ASC_NODE": 168.669, "ARG_OF_PERICENTER": 222.3237, "MEAN_ANOMALY": 135.4425, "EPHEMERIS_TYPE": 0, "CLASSIFICATION_TYPE": "U", "NORAD_CAT_ID": 30056, "ELEMENT_SET_NO": 999, "REV_AT_EPOCH": 93917, "BSTAR": 0.0042000706, "MEAN_MOTION_DOT": 5.417e-05, "MEAN_MOTION_DDOT": 0}, "tle": {"line1": "1 30056U 99025PH  25342.48228902  .00005417  00000+0  42001-2 0  9995", "line2": "2 30056  98.3222 168.6690 0299887 222.3237 135.4425 13.73938715939172"}}, "geometry": {"type": "Point", "coordinates": [178.43260964765742, -47.91567678751596]}}, {"type": "Feature", "properties": {"norad_id": 30057, "name": "FENGYUN 1C DEB", "group": "fengyun-1c-debris", "lat": -56.88868374479597, "lon": 65.95188646086028, "alt_km": 1231.4323486831909, "timestamp": "2025-12-08T23:34:04.242860+00:00", "meta": {"OBJECT_NAME": "FENGYUN 1C DEB", "OBJECT_ID": "1999-025PJ", "EPOCH": "2025-12-08T04:43:35.222880", "MEAN_MOTION": 13.5710436, "ECCENTRICITY": 0.02928029, "INCLINATION": 98.8833, "RA_OF_ASC_NODE": 51.3671, "ARG_OF_PERICENTER": 158.1286, "MEAN_ANOMALY": 268.6155, "EPHEMERIS_TYPE": 0, "CLASSIFICATION_TYPE": "U", "NORAD_CAT_ID": 30057, "ELEMENT_SET_NO": 999, "REV_AT_EPOCH": 93174, "BSTAR": 0.0016998854, "MEAN_MOTION_DOT": 1.562e-05, "MEAN_MOTION_DDOT": 0}, "tle": {"line1": "1 30057U 99025PJ  25342.19693545  .00001562  00000+0  16999-2 0  9997", "line2": "2 30057  98.8833  51.3671 0292802 158.1286 268.6155 13.57104360931740"}}, "geometry": {"type": "Point", "coordinates": [65.95188646086028, -56.88868374479597]}}, {"type": "Feature", "properties": {"norad_id": 30058, "name": "FENGYUN 1C DEB", "group": "fengyun-1c-debris", "lat": 54.97117950221405, "lon": -178.6026939856076, "alt_km": 884.9767561011349, "timestamp": "2025-12-08T23:34:04.242870+00:00", "meta": {"OBJECT_NAME": "FENGYUN 1C DEB", "OBJECT_ID": "1999-025PK", "EPOCH": "2025-12-08T14:38:04.965216", "MEAN_MOTION": 13.48231745, "ECCENTRICITY": 0.03157078, "INCLINATION": 99.6494, "RA_OF_ASC_NODE": 346.9911, "ARG_OF_PERICENTER": 162.6271, "MEAN_ANOMALY": 317.6668, "EPHEMERIS_TYPE": 0, "CLASSIFICATION_TYPE": "U", "NORAD_CAT_ID": 30058, "ELEMENT_SET_NO": 999, "REV_AT_EPOCH": 92792, "BSTAR": 0.00086453791, "MEAN_MOTION_DOT": 6.85e-06, "MEAN_MOTION_DDOT": 0}, "tle": {"line1": "1 30058U 99025PK  25342.60977969  .00000685  00000+0  86454-3 0  9998", "line2": "2 30058  99.6494 346.9911 0315707 162.6271 317.6668 13.48231745927924"}}, "geometry": {"type": "Point", "coordinates": [-178.6026939856076, 54.97117950221405]}}, {"type": "Feature", "properties": {"norad_id": 30059, "name": "FENGYUN 1C DEB", "group": "fengyun-1c-debris", "lat": -42.37758614766237, "lon": -13.136102335971284, "alt_km": 852.1810247125632, "timestamp": "2025-12-08T23:34:04.242880+00:00", "meta": {"OBJECT_NAME": "FENGYUN 1C DEB", "OBJECT_ID": "1999-025PL", "EPOCH": "2025-12-08T11:55:12.211968", "MEAN_MOTION": 13.45490851, "ECCENTRICITY": 0.03267778, "INCLINATION": 98.8222, "RA_OF_ASC_NODE": 338.2905, "ARG_OF_PERICENTER": 313.4727, "MEAN_ANOMALY": 173.734, "EPHEMERIS_TYPE": 0, "CLASSIFICATION_TYPE": "U", "NORAD_CAT_ID": 30059, "ELEMENT_SET_NO": 999, "REV_AT_EPOCH": 92740, "BSTAR": 0.00070172419, "MEAN_MOTION_DOT": 5.35e-06, "MEAN_MOTION_DDOT": 0}, "tle": {"line1": "1 30059U 99025PL  25342.49666912  .00000535  00000+0  70172-3 0  9993", "line2": "2 30059  98.8222 338.2905 0326777 313.4727 173.7340 13.45490851927406"}}, "geometry": {"type": "Point", "coordinates": [-13.136102335971284, -42.37758614766237]}}, {"type": "Feature", "properties": {"norad_id": 30060, "name": "FENGYUN 1C DEB", "group": "fengyun-1c-debris", "lat": -43.061304474147285, "lon": 21.127990738644492, "alt_km": 1303.3006107008614, "timestamp": "2025-12-08T23:34:04.242891+00:00", "meta": {"OBJECT_NAME": "FENGYUN 1C DEB", "OBJECT_ID": "1999-025PM", "EPOCH": "2025-12-08T03:33:30.436416", "MEAN_MOTION": 13.43734251, "ECCENTRICITY": 0.03442714, "INCLINATION": 99.314, "RA_OF_ASC_NODE": 209.1768, "ARG_OF_PERICENTER": 83.0651, "MEAN_ANOMALY": 67.1666, "EPHEMERIS_TYPE": 0, "CLASSIFICATION_TYPE": "U", "NORAD_CAT_ID": 30060, "ELEMENT_SET_NO": 999, "REV_AT_EPOCH": 92181, "BSTAR": 0.0026974099, "MEAN_MOTION_DOT": 2.18e-05, "MEAN_MOTION_DDOT": 0}, "tle": {"line1": "1 30060U 99025PM  25342.14826894  .00002180  00000+0  26974-2 0  9992", "line2": "2 30060  99.3140 209.1768 0344271  83.0651  67.1666 13.43734251921810"}}, "geometry": {"type": "Point", "coordinates": [21.127990738644492, -43.061304474147285]}}]}